NORAD_CAT_ID,OBJECT_NAME,OBJECT_TYPE,EPOCH,MEAN_MOTION,ECCENTRICITY,INCLINATION,RA_OF_ASC_NODE,ARG_OF_PERICENTER,MEAN_ANOMALY,BSTAR,MEAN_MOTION_DOT,MEAN_MOTION_DDOT,TLE_LINE0,TLE_LINE1,TLE_LINE2,SEMIMAJOR_AXIS,PERIOD,APOGEE,PERIGEE,DECAYED
55302.0,STARLINK-5321,PAYLOAD,2023-10-07 14:27:16,14.98332974,0.0002944,69.9987,93.4637,267.7735,92.3087,2.4058e-05,1.94e-06,0.0,0 STARLINK-5321,1 55302U 23010AK  23280.60227588  .00000194  00000-0  24058-4 0  9991,2 55302  69.9987  93.4637 0002944 267.7735  92.3087 14.98332974 40848,6950.184,96.107,574.095,570.003,0.0
55302.0,STARLINK-5321,PAYLOAD,2023-10-07 20:51:48,14.98332994,0.000295,69.9989,92.7904,267.681,92.4012,2.3196e-05,1.84e-06,0.0,0 STARLINK-5321,1 55302U 23010AK  23280.86931536  .00000184  00000-0  23196-4 0  9995,2 55302  69.9989  92.7904 0002950 267.6810  92.4012 14.98332994 40884,6950.184,96.107,574.099,569.998,0.0
55302.0,STARLINK-5321,PAYLOAD,2023-10-08 12:53:09,14.98328752,0.0002913,69.9991,91.1069,267.3658,92.7168,-1.1769e-05,-2.33e-06,0.0,0 STARLINK-5321,1 55302U 23010AK  23281.53691858 -.00000233  00000-0 -11769-4 0  9990,2 55302  69.9991  91.1069 0002913 267.3658  92.7168 14.98328752 40981,6950.197,96.107,574.086,570.037,0.0
55302.0,STARLINK-5321,PAYLOAD,2023-10-08 17:41:34,14.98328066,0.0002944,69.999,90.6016,269.4056,90.6766,-1.7711e-05,-3.04e-06,0.0,0 STARLINK-5321,1 55302U 23010AK  23281.73719936 -.00000304  00000-0 -17711-4 0  9992,2 55302  69.9990  90.6016 0002944 269.4056  90.6766 14.98328066 40704,6950.199,96.107,574.11,570.018,0.0
55302.0,STARLINK-5321,PAYLOAD,2023-10-08 20:53:50,14.98328998,0.0002939,69.9991,90.2649,270.0011,90.0812,-6.291e-06,-1.68e-06,0.0,0 STARLINK-5321,1 55302U 23010AK  23281.87071853 -.00000168  00000-0 -62910-5 0  9996,2 55302  69.9991  90.2649 0002939 270.0011  90.0812 14.98328998 41033,6950.196,96.107,574.104,570.018,0.0
55302.0,STARLINK-5321,PAYLOAD,2023-10-09 12:55:10,14.98332537,0.0002987,69.9991,88.5816,270.7796,89.302,2.7661e-06,-6e-07,0.0,0 STARLINK-5321,1 55302U 23010AK  23282.53831567 -.00000060  00000-0  27661-5 0  9990,2 55302  69.9991  88.5816 0002987 270.7796  89.3020 14.98332537 41136,6950.185,96.107,574.126,569.974,0.0
55302.0,STARLINK-5321,PAYLOAD,2023-10-09 17:43:34,14.98333664,0.0003008,69.999,88.0767,270.8712,89.2103,7.3216e-08,-9.2e-07,0.0,0 STARLINK-5321,1 55302U 23010AK  23282.73859463 -.00000092  00000-0  73216-7 0  9991,2 55302  69.9990  88.0767 0003008 270.8712  89.2103 14.98333664 40850,6950.182,96.107,574.137,569.956,0.0
55302.0,STARLINK-5321,PAYLOAD,2023-10-09 20:55:50,14.98334251,0.0003001,69.9991,87.7401,271.0078,89.0737,7.7709e-06,0.0,0.0,0 STARLINK-5321,1 55302U 23010AK  23282.87211374  .00000000  00000-0  77709-5 0  9996,2 55302  69.9991  87.7401 0003001 271.0078  89.0737 14.98334251 41184,6950.18,96.107,574.13,569.959,0.0
55302.0,STARLINK-5321,PAYLOAD,2023-10-10 12:57:10,14.98336699,0.0002994,69.9992,86.0567,270.9829,89.0987,9.1427e-05,9.98e-06,0.0,0 STARLINK-5321,1 55302U 23010AK  23283.53970805  .00000998  00000-0  91427-4 0  9999,2 55302  69.9992  86.0567 0002994 270.9829  89.0987 14.98336699 41288,6950.172,96.107,574.118,569.956,0.0
55302.0,STARLINK-5321,PAYLOAD,2023-10-10 17:45:34,14.9834532,0.000298,69.9992,85.5518,271.0467,89.035,0.00018048,2.062e-05,0.0,0 STARLINK-5321,1 55302U 23010AK  23283.73997895  .00002062  00000-0  18048-3 0  9990,2 55302  69.9992  85.5518 0002980 271.0467  89.0350 14.98345320 41008,6950.146,96.106,574.082,569.939,0.0
55302.0,STARLINK-5321,PAYLOAD,2023-10-10 20:57:49,14.9834885,0.0002943,69.9993,85.2149,270.8395,89.2427,0.0002109,2.425e-05,0.0,0 STARLINK-5321,1 55302U 23010AK  23283.87349445  .00002425  00000-0  21090-3 0  9991,2 55302  69.9993  85.2149 0002943 270.8395  89.2427 14.98348850 41336,6950.135,96.106,574.045,569.954,0.0
55302.0,STARLINK-5321,PAYLOAD,2023-10-11 12:59:12,14.98329246,0.0003008,69.9989,83.5321,269.8968,90.1846,-6.0787e-05,-8.18e-06,0.0,0 STARLINK-5321,1 55302U 23010AK  23284.54111176 -.00000818  00000-0 -60787-4 0  9997,2 55302  69.9989  83.5321 0003008 269.8968  90.1846 14.98329246 41436,6950.195,96.107,574.151,569.97,0.0
55302.0,STARLINK-5321,PAYLOAD,2023-10-11 17:47:36,14.98325043,0.0003102,69.9992,83.0268,272.5684,87.512,-0.00010935,-1.397e-05,0.0,0 STARLINK-5321,1 55302U 23010AK  23284.74139588 -.00001397  00000-0 -10935-3 0  9998,2 55302  69.9992  83.0268 0003102 272.5684  87.5120 14.98325043 41151,6950.208,96.107,574.229,569.917,0.0
55302.0,STARLINK-5321,PAYLOAD,2023-10-12 13:01:13,14.98332694,0.0003022,69.9997,81.0074,271.5362,88.5451,-0.00017468,-2.177e-05,0.0,0 STARLINK-5321,1 55302U 23010AK  23285.54251428 -.00002177  00000-0 -17468-3 0  9990,2 55302  69.9997  81.0074 0003022 271.5362  88.5451 14.98332694 41587,6950.185,96.107,574.15,569.949,0.0
55302.0,STARLINK-5321,PAYLOAD,2023-10-12 19:25:49,14.98278298,0.0002836,69.9991,80.3324,271.7377,88.3457,-0.00079172,-9.514e-05,0.0,0 STARLINK-5321,1 55302U 23010AK  23285.80960013 -.00009514  00000-0 -79172-3 0  9998,2 55302  69.9991  80.3324 0002836 271.7377  88.3457 14.98278298 41315,6950.353,96.11,574.189,570.247,0.0
55302.0,STARLINK-5321,PAYLOAD,2023-10-13 03:26:25,14.98331762,0.0002893,69.9997,79.4918,274.837,85.2459,-7.85e-05,-1.03e-05,0.0,0 STARLINK-5321,1 55302U 23010AK  23286.14335110 -.00001030  00000-0 -78500-4 0  9990,2 55302  69.9997  79.4918 0002893 274.8370  85.2459 14.98331762 41368,6950.187,96.107,574.063,570.042,0.0
55302.0,STARLINK-5321,PAYLOAD,2023-10-13 14:39:22,14.98322766,0.0002914,69.9997,78.314,276.9753,83.1074,7.8261e-05,8.41e-06,0.0,0 STARLINK-5321,1 55302U 23010AK  23286.61067322  .00000841  00000-0  78261-4 0  9990,2 55302  69.9997  78.3140 0002914 276.9753  83.1074 14.98322766 41741,6950.215,96.107,574.106,570.055,0.0
55302.0,STARLINK-5321,PAYLOAD,2023-10-13 17:51:39,14.98307522,0.0003043,69.9993,77.9756,280.046,80.0355,-1.9234e-05,-3.22e-06,0.0,0 STARLINK-5321,1 55302U 23010AK  23286.74420476 -.00000322  00000-0 -19234-4 0  9998,2 55302  69.9993  77.9756 0003043 280.0460  80.0355 14.98307522 41459,6950.262,96.108,574.242,570.012,0.0
55302.0,STARLINK-5321,PAYLOAD,2023-10-13 19:27:46,14.98325657,0.0002805,69.9998,77.809,273.4253,86.6585,0.00011729,1.307e-05,0.0,0 STARLINK-5321,1 55302U 23010AK  23286.81095079  .00001307  00000-0  11729-3 0  9995,2 55302  69.9998  77.8090 0002805 273.4253  86.6585 14.98325657 41776,6950.206,96.107,574.021,570.122,0.0
55302.0,STARLINK-5321,PAYLOAD,2023-10-14 13:05:15,14.98325028,0.0002532,70.0,75.9576,276.8671,83.22,6.3271e-05,6.62e-06,0.0,0 STARLINK-5321,1 55302U 23010AK  23287.54531539  .00000662  00000-0  63271-4 0  9995,2 55302  70.0000  75.9576 0002532 276.8671  83.2200 14.98325028 41880,6950.208,96.107,573.833,570.313,0.0
55302.0,STARLINK-5321,PAYLOAD,2023-10-14 19:29:47,14.98329269,0.0003079,69.9998,75.284,275.2648,84.816,2.5202e-05,2.08e-06,0.0,0 STARLINK-5321,1 55302U 23010AK  23287.81235243  .00000208  00000-0  25202-4 0  9996,2 55302  69.9998  75.2840 0003079 275.2648  84.8160 14.98329269 41922,6950.195,96.107,574.2,569.92,0.0
55302.0,STARLINK-5321,PAYLOAD,2023-10-15 13:07:16,14.9832531,0.0002894,70.0003,73.4327,272.097,87.9858,-1.838e-05,-3.12e-06,0.0,0 STARLINK-5321,1 55302U 23010AK  23288.54671735 -.00000312  00000-0 -18380-4 0  9994,2 55302  70.0003  73.4327 0002894 272.0970  87.9858 14.98325310 42033,6950.207,96.107,574.084,570.061,0.0
55302.0,STARLINK-5321,PAYLOAD,2023-10-15 19:31:48,14.98328575,0.0002906,70.0002,72.7586,270.0045,90.0781,-1.694e-05,-2.95e-06,0.0,0 STARLINK-5321,1 55302U 23010AK  23288.81375536 -.00000295  00000-0 -16940-4 0  9994,2 55302  70.0002  72.7586 0002906 270.0045  90.0781 14.98328575 42076,6950.197,96.107,574.082,570.043,0.0
55302.0,STARLINK-5321,PAYLOAD,2023-10-16 14:45:25,14.98328499,0.0002933,70.0003,70.7392,269.2463,90.836,1.3034e-05,6.3e-07,0.0,0 STARLINK-5321,1 55302U 23010AK  23289.61487465  .00000063  00000-0  13034-4 0  9990,2 55302  70.0003  70.7392 0002933 269.2463  90.8360 14.98328499 42193,6950.198,96.107,574.101,570.024,0.0
55302.0,STARLINK-5321,PAYLOAD,2023-10-16 16:21:33,14.98329191,0.000288,70.0004,70.5708,267.7325,92.3505,2.074e-05,1.54e-06,0.0,0 STARLINK-5321,1 55302U 23010AK  23289.68163402  .00000154  00000-0  20740-4 0  9992,2 55302  70.0004  70.5708 0002880 267.7325  92.3505 14.98329191 42204,6950.195,96.107,574.062,570.059,0.0
55302.0,STARLINK-5321,PAYLOAD,2023-10-17 11:35:09,14.98329035,0.0002999,70.0002,68.5508,269.9983,90.0833,1.5131e-05,8.8e-07,0.0,0 STARLINK-5321,1 55302U 23010AK  23290.48275455  .00000088  00000-0  15131-4 0  9998,2 55302  70.0002  68.5508 0002999 269.9983  90.0833 14.98329035 42017,6950.196,96.107,574.145,569.977,0.0
55302.0,STARLINK-5321,PAYLOAD,2023-10-17 16:23:33,14.98346862,0.000303,70.0003,68.0462,270.3814,89.6998,-0.00023346,-2.879e-05,0.0,0 STARLINK-5321,1 55302U 23010AK  23290.68302975 -.00002879  00000-0 -23346-3 0  9996,2 55302  70.0003  68.0462 0003030 270.3814  89.6998 14.98346862 42044,6950.141,96.106,574.112,569.9,0.0
55302.0,STARLINK-5321,PAYLOAD,2023-10-18 02:00:22,14.98334359,0.0003033,70.0005,67.0362,271.1102,88.9709,-6.6584e-05,-8.87e-06,0.0,0 STARLINK-5321,1 55302U 23010AK  23291.08359347 -.00000887  00000-0 -66584-4 0  9995,2 55302  70.0005  67.0362 0003033 271.1102  88.9709 14.98334359 42417,6950.179,96.107,574.152,569.936,0.0
55302.0,STARLINK-5321,PAYLOAD,2023-10-18 11:37:11,14.98327371,0.0002896,70.0007,66.0264,271.0687,89.014,-1.8625e-05,-3.15e-06,0.0,0 STARLINK-5321,1 55302U 23010AK  23291.48415670 -.00000315  00000-0 -18625-4 0  9990,2 55302  70.0007  66.0264 0002896 271.0687  89.0140 14.98327371 42161,6950.201,96.107,574.079,570.053,0.0
55302.0,STARLINK-5321,PAYLOAD,2023-10-19 11:39:11,14.98335997,0.0002845,70.0004,63.5017,269.5437,90.5396,5.8633e-05,6.07e-06,0.0,0 STARLINK-5321,1 55302U 23010AK  23292.48554715  .00000607  00000-0  58633-4 0  9990,2 55302  70.0004  63.5017 0002845 269.5437  90.5396 14.98335997 42315,6950.174,96.107,574.017,570.062,0.0
